{"type":"FeatureCollection","name":"alcaldias_cdmx","features":[{"type":"Feature","properties":{"cve_alc":"002","nombre":"Azcapotzalco"},"geometry":{"type":"Polygon","coordinates":[[[-99.20434,19.51503],[-99.18229,19.50747],[-99.17705,19.50619],[-99.17304,19.50859],[-99.15695,19.50272],[-99.14312,19.46506],[-99.15055,19.46294],[-99.15865,19.46392],[-99.16293,19.45934],[-99.16371,19.45643],[-99.18848,19.46078],[-99.188,19.46381],[-99.19073,19.46467],[-99.19096,19.47063],[-99.20102,19.47336],[-99.20682,19.47122],[-99.22112,19.47507],[-99.21016,19.51114],[-99.20897,19.51268],[-99.20434,19.51503]]]}},{"type":"Feature","properties":{"cve_alc":"003","nombre":"Coyoacán"},"geometry":{"type":"Polygon","coordinates":[[[-99.17169,19.35956],[-99.1692,19.3586],[-99.13427,19.35654],[-99.13118,19.35866],[-99.12198,19.35766],[-99.12078,19.35184],[-99.11557,19.34326],[-99.11293,19.33537],[-99.10573,19.3263],[-99.09921,19.32092],[-99.10093,19.30002],[-99.10921,19.29962],[-99.11681,19.30142],[-99.13472,19.30829],[-99.14262,19.29961],[-99.14741,19.30129],[-99.15162,19.29801],[-99.15666,19.29684],[-99.15905,19.29975],[-99.16226,19.30128],[-99.17929,19.30344],[-99.19505,19.30205],[-99.20575,19.30568],[-99.20025,19.31116],[-99.20118,19.31195],[-99.19493,19.32203],[-99.1947,19.33023],[-99.19629,19.33363],[-99.19982,19.33351],[-99.19806,19.33548],[-99.19124,19.33688],[-99.19032,19.33868],[-99.18404,19.34365],[-99.18287,19.34658],[-99.18055,19.34724],[-99.17993,19.34964],[-99.17299,19.35675],[-99.17169,19.35956]]]}},{"type":"Feature","properties":{"cve_alc":"004","nombre":"Cuajimalpa de Morelos"},"geometry":{"type":"Polygon","coordinates":[[[-99.25771,19.40474],[-99.25827,19.40268],[-99.25698,19.40043],[-99.25604,19.40356],[-99.25557,19.4031],[-99.25525,19.39868],[-99.25635,19.39651],[-99.25963,19.39431],[-99.25925,19.3926],[-99.25484,19.39371],[-99.25475,19.39522],[-99.25256,19.39352],[-99.24704,19.39418],[-99.24695,19.39266],[-99.24853,19.39041],[-99.24765,19.38596],[-99.26135,19.37584],[-99.27016,19.37263],[-99.26978,19.37144],[-99.26838,19.37181],[-99.26911,19.36906],[-99.26843,19.36871],[-99.26507,19.37175],[-99.26672,19.36781],[-99.26683,19.36355],[-99.26126,19.36104],[-99.25933,19.35017],[-99.25823,19.34971],[-99.26113,19.34783],[-99.259,19.34806],[-99.26306,19.34684],[-99.26842,19.34189],[-99.28116,19.33743],[-99.28021,19.33523],[-99.28495,19.33647],[-99.2875,19.33115],[-99.2867,19.32977],[-99.28832,19.33067],[-99.28796,19.33348],[-99.29126,19.32916],[-99.29078,19.32665],[-99.29174,19.32421],[-99.29057,19.32145],[-99.29314,19.32053],[-99.29485,19.31692],[-99.29646,19.31723],[-99.29674,19.31863],[-99.30053,19.32225],[-99.30181,19.3183],[-99.30004,19.31397],[-99.30129,19.30951],[-99.3033,19.31114],[-99.30591,19.30725],[-99.30736,19.30787],[-99.30879,19.3051],[-99.31015,19.30758],[-99.31157,19.30681],[-99.31197,19.30434],[-99.3136,19.30359],[-99.31399,19.30144],[-99.31641,19.30005],[-99.31589,19.29917],[-99.31712,19.2934],[-99.31574,19.2899],[-99.31667,19.28614],[-99.31573,19.2822],[-99.31738,19.27487],[-99.32364,19.26509],[-99.32432,19.23261],[-99.32672,19.23257],[-99.33082,19.23794],[-99.34234,19.24112],[-99.33986,19.25965],[-99.33763,19.26404],[-99.33916,19.2677],[-99.34469,19.26948],[-99.34821,19.27396],[-99.36192,19.27574],[-99.36492,19.27777],[-99.35358,19.29193],[-99.35454,19.29329],[-99.35149,19.29415],[-99.35126,19.29497],[-99.3535,19.2974],[-99.34999,19.29684],[-99.35627,19.30201],[-99.35661,19.30668],[-99.33384,19.33059],[-99.33231,19.33352],[-99.33115,19.33978],[-99.32827,19.3452],[-99.32848,19.35309],[-99.32743,19.35413],[-99.32639,19.35367],[-99.32329,19.35834],[-99.31813,19.35816],[-99.3207,19.36044],[-99.31954,19.36362],[-99.31812,19.36416],[-99.31686,19.36631],[-99.31539,19.36589],[-99.31309,19.37045],[-99.30776,19.37156],[-99.30501,19.37683],[-99.30348,19.37783],[-99.30131,19.37708],[-99.30194,19.37576],[-99.30123,19.3697],[-99.29902,19.36752],[-99.29792,19.36932],[-99.29559,19.36908],[-99.29389,19.37015],[-99.29061,19.37502],[-99.28864,19.37511],[-99.28767,19.37668],[-99.2857,19.37644],[-99.28504,19.37905],[-99.28283,19.3814],[-99.28004,19.38227],[-99.27369,19.38704],[-99.27243,19.38968],[-99.26957,19.39038],[-99.26816,19.39245],[-99.2671,19.39207],[-99.26172,19.39599],[-99.26114,19.39965],[-99.25907,19.40146],[-99.25883,19.40375],[-99.25771,19.40474]]]}},{"type":"Feature","properties":{"cve_alc":"005","nombre":"Gustavo A. Madero"},"geometry":{"type":"Polygon","coordinates":[[[-99.12371,19.59276],[-99.11946,19.59199],[-99.11789,19.59059],[-99.1186,19.58446],[-99.11691,19.58144],[-99.11466,19.5798],[-99.11182,19.56873],[-99.1081,19.56489],[-99.11572,19.55666],[-99.11562,19.55404],[-99.12104,19.54913],[-99.12273,19.54544],[-99.13057,19.53609],[-99.12737,19.53508],[-99.128,19.52453],[-99.12528,19.5205],[-99.11441,19.51106],[-99.11059,19.51117],[-99.10943,19.51031],[-99.10764,19.51103],[-99.1073,19.50968],[-99.0974,19.51263],[-99.06386,19.49878],[-99.06799,19.48908],[-99.06485,19.48184],[-99.06328,19.48127],[-99.06336,19.47861],[-99.05087,19.45018],[-99.05256,19.44842],[-99.06229,19.44479],[-99.08088,19.45016],[-99.08716,19.44577],[-99.09322,19.4516],[-99.10137,19.44994],[-99.11162,19.45371],[-99.11727,19.45807],[-99.12755,19.46153],[-99.13334,19.46485],[-99.14193,19.46582],[-99.14312,19.46506],[-99.16298,19.51796],[-99.17463,19.52407],[-99.17137,19.52719],[-99.17536,19.53009],[-99.17615,19.52887],[-99.17705,19.52933],[-99.17601,19.53204],[-99.15916,19.5269],[-99.1568,19.52809],[-99.1586,19.52886],[-99.15585,19.53244],[-99.15851,19.53392],[-99.15108,19.54485],[-99.15921,19.5492],[-99.1609,19.54926],[-99.15757,19.55505],[-99.1581,19.55735],[-99.15614,19.56015],[-99.15281,19.56196],[-99.1509,19.56052],[-99.1468,19.56464],[-99.14476,19.57083],[-99.13957,19.5754],[-99.1379,19.58113],[-99.13376,19.58489],[-99.13376,19.58624],[-99.12699,19.58851],[-99.12371,19.59276]]]}},{"type":"Feature","properties":{"cve_alc":"006","nombre":"Iztacalco"},"geometry":{"type":"Polygon","coordinates":[[[-99.05591,19.42219],[-99.06085,19.38259],[-99.06637,19.38354],[-99.08402,19.39257],[-99.08458,19.38948],[-99.0888,19.39038],[-99.09565,19.3796],[-99.12248,19.38244],[-99.12253,19.3757],[-99.13549,19.37719],[-99.13094,19.39895],[-99.13718,19.3992],[-99.13659,19.40281],[-99.11457,19.40562],[-99.09804,19.40914],[-99.07824,19.40705],[-99.0695,19.42025],[-99.05792,19.42089],[-99.05591,19.42219]]]}},{"type":"Feature","properties":{"cve_alc":"007","nombre":"Iztapalapa"},"geometry":{"type":"Polygon","coordinates":[[[-99.05813,19.40072],[-99.01957,19.38326],[-98.99194,19.3676],[-98.99456,19.35814],[-98.97879,19.34329],[-98.97433,19.33703],[-98.96045,19.32537],[-98.96828,19.32572],[-98.96896,19.32474],[-98.97532,19.32564],[-98.97652,19.32426],[-98.9782,19.32533],[-98.97856,19.3239],[-98.98061,19.32466],[-98.97987,19.32614],[-99.00135,19.32713],[-99.03873,19.31573],[-99.03959,19.31469],[-99.04044,19.31541],[-99.04361,19.31221],[-99.04662,19.31488],[-99.04887,19.31188],[-99.05043,19.31296],[-99.05226,19.31076],[-99.05378,19.31186],[-99.05987,19.30444],[-99.0634,19.30568],[-99.06478,19.30164],[-99.06163,19.29266],[-99.06915,19.28509],[-99.07494,19.2897],[-99.09771,19.31717],[-99.09995,19.32192],[-99.10573,19.3263],[-99.11216,19.33422],[-99.11557,19.34326],[-99.12024,19.35056],[-99.12198,19.35766],[-99.13118,19.35866],[-99.13367,19.35655],[-99.13989,19.35737],[-99.13542,19.37731],[-99.12253,19.3757],[-99.12248,19.38244],[-99.09565,19.3796],[-99.0888,19.39038],[-99.08458,19.38948],[-99.08402,19.39257],[-99.06637,19.38354],[-99.06085,19.38259],[-99.05813,19.40072]]]}},{"type":"Feature","properties":{"cve_alc":"008","nombre":"La Magdalena Contreras"},"geometry":{"type":"Polygon","coordinates":[[[-99.20785,19.33787],[-99.20867,19.33598],[-99.20666,19.33622],[-99.20937,19.33328],[-99.21269,19.32692],[-99.22123,19.3201],[-99.21993,19.31226],[-99.22047,19.31132],[-99.22493,19.3106],[-99.22775,19.30696],[-99.2319,19.30504],[-99.23297,19.30181],[-99.23223,19.30147],[-99.2334,19.30082],[-99.23248,19.29788],[-99.2333,19.2966],[-99.23597,19.29446],[-99.24138,19.29402],[-99.24266,19.29227],[-99.24276,19.28936],[-99.24081,19.28699],[-99.24297,19.28414],[-99.24196,19.28301],[-99.24491,19.28014],[-99.24537,19.27696],[-99.24346,19.27565],[-99.24461,19.2729],[-99.24347,19.26979],[-99.24599,19.26753],[-99.24709,19.26475],[-99.24553,19.26293],[-99.24724,19.26028],[-99.24574,19.25894],[-99.24389,19.2592],[-99.24539,19.25734],[-99.24459,19.25273],[-99.24529,19.25027],[-99.24739,19.24885],[-99.24801,19.24673],[-99.25035,19.24569],[-99.25177,19.24243],[-99.25099,19.24046],[-99.25343,19.23481],[-99.2589,19.23051],[-99.27068,19.2242],[-99.27416,19.22104],[-99.27421,19.21815],[-99.27734,19.21472],[-99.2831,19.21306],[-99.28464,19.21369],[-99.28782,19.21312],[-99.29144,19.2146],[-99.29315,19.21391],[-99.29671,19.21776],[-99.30143,19.21822],[-99.30962,19.22475],[-99.31506,19.2269],[-99.31534,19.2292],[-99.32225,19.23265],[-99.32316,19.23923],[-99.32006,19.24314],[-99.31764,19.24449],[-99.31707,19.25031],[-99.31592,19.25092],[-99.31477,19.25498],[-99.31536,19.25636],[-99.30877,19.2581],[-99.3053,19.25794],[-99.30237,19.25893],[-99.30088,19.26104],[-99.29798,19.26145],[-99.29424,19.2646],[-99.29258,19.26831],[-99.28963,19.27029],[-99.28619,19.27068],[-99.28333,19.2751],[-99.28397,19.27696],[-99.28114,19.28062],[-99.27822,19.28141],[-99.27789,19.28259],[-99.27332,19.28519],[-99.27617,19.2891],[-99.27246,19.29421],[-99.27147,19.29917],[-99.26974,19.30118],[-99.27222,19.30246],[-99.26843,19.30512],[-99.27001,19.30577],[-99.27134,19.30826],[-99.26953,19.31356],[-99.26765,19.3142],[-99.2659,19.31344],[-99.25469,19.32676],[-99.24423,19.32856],[-99.24277,19.328],[-99.24032,19.32442],[-99.23731,19.3247],[-99.2312,19.32984],[-99.2224,19.33354],[-99.21714,19.33469],[-99.21486,19.33639],[-99.21148,19.3362],[-99.20785,19.33787]]]}},{"type":"Feature","properties":{"cve_alc":"009","nombre":"Milpa Alta"},"geometry":{"type":"Polygon","coordinates":[[[-98.9988,19.22769],[-98.99718,19.22747],[-98.99746,19.22649],[-98.99579,19.22504],[-98.99526,19.22751],[-98.99373,19.22747],[-98.99326,19.22494],[-98.99124,19.22479],[-98.99056,19.22578],[-98.97815,19.21507],[-98.97362,19.21408],[-98.96684,19.20901],[-98.96723,19.20625],[-98.96968,19.20425],[-98.9677,19.20313],[-98.96703,19.19991],[-98.96769,19.18974],[-98.95985,19.17917],[-98.95617,19.17676],[-98.95239,19.16864],[-98.96737,19.16444],[-98.95463,19.14952],[-98.96646,19.14387],[-98.96109,19.13303],[-98.95751,19.12238],[-98.95906,19.10428],[-98.96124,19.09558],[-98.96572,19.08586],[-98.979,19.07446],[-98.98359,19.07876],[-99.02899,19.08537],[-99.04321,19.07576],[-99.0598,19.04824],[-99.12543,19.06206],[-99.13538,19.0893],[-99.13648,19.08938],[-99.16329,19.11749],[-99.1525,19.14212],[-99.15196,19.15077],[-99.14961,19.16031],[-99.14449,19.15867],[-99.1404,19.15221],[-99.13241,19.14861],[-99.1048,19.19896],[-99.10225,19.20066],[-99.10175,19.20481],[-99.09921,19.20815],[-99.09569,19.20863],[-99.09456,19.21154],[-99.09097,19.21102],[-99.03019,19.22363],[-99.0001,19.22632],[-99.00299,19.22757],[-98.99985,19.22678],[-98.9988,19.22769]]]}},{"type":"Feature","properties":{"cve_alc":"010","nombre":"Álvaro Obregón"},"geometry":{"type":"Polygon","coordinates":[[[-99.1922,19.40372],[-99.19222,19.40113],[-99.19061,19.39932],[-99.18836,19.39363],[-99.19173,19.38268],[-99.19214,19.3734],[-99.19077,19.36689],[-99.19109,19.36349],[-99.18371,19.36172],[-99.1798,19.36304],[-99.17774,19.36514],[-99.17171,19.35957],[-99.17299,19.35675],[-99.17993,19.34964],[-99.18055,19.34724],[-99.18287,19.34658],[-99.18404,19.34365],[-99.19032,19.33868],[-99.19124,19.33688],[-99.19806,19.33548],[-99.19982,19.33351],[-99.19629,19.33363],[-99.1947,19.33023],[-99.19499,19.32184],[-99.20118,19.31195],[-99.20025,19.31116],[-99.20575,19.30568],[-99.21592,19.30788],[-99.22052,19.31372],[-99.22115,19.32027],[-99.21278,19.3268],[-99.20937,19.33328],[-99.20666,19.33622],[-99.20867,19.33598],[-99.20752,19.33781],[-99.21148,19.3362],[-99.21486,19.33639],[-99.21714,19.33469],[-99.2224,19.33354],[-99.2312,19.32984],[-99.23731,19.3247],[-99.24032,19.32442],[-99.24277,19.328],[-99.24423,19.32856],[-99.25518,19.32656],[-99.2659,19.31344],[-99.26844,19.31401],[-99.27054,19.31194],[-99.2712,19.30722],[-99.26843,19.30512],[-99.27222,19.30246],[-99.26974,19.30118],[-99.27147,19.29917],[-99.27246,19.29421],[-99.27617,19.2891],[-99.27332,19.28519],[-99.27789,19.28259],[-99.27822,19.28141],[-99.28114,19.28062],[-99.28397,19.27696],[-99.28333,19.2751],[-99.28619,19.27068],[-99.28963,19.27029],[-99.29258,19.26831],[-99.29424,19.2646],[-99.29798,19.26145],[-99.30088,19.26104],[-99.30237,19.25893],[-99.3053,19.25794],[-99.30877,19.2581],[-99.31536,19.25636],[-99.31477,19.25498],[-99.31592,19.25092],[-99.31707,19.25031],[-99.31764,19.24449],[-99.32267,19.24031],[-99.32331,19.23855],[-99.32225,19.23265],[-99.32432,19.23261],[-99.32364,19.26509],[-99.31738,19.27487],[-99.31573,19.2822],[-99.31667,19.28614],[-99.31574,19.2899],[-99.31712,19.2934],[-99.31589,19.29917],[-99.31641,19.30005],[-99.31399,19.30144],[-99.3136,19.30359],[-99.31197,19.30434],[-99.31157,19.30681],[-99.31015,19.30758],[-99.30879,19.3051],[-99.30736,19.30787],[-99.30591,19.30725],[-99.3033,19.31114],[-99.30129,19.30951],[-99.30004,19.31397],[-99.30181,19.3183],[-99.30053,19.32225],[-99.29674,19.31863],[-99.29646,19.31723],[-99.29485,19.31692],[-99.29314,19.32053],[-99.29057,19.32145],[-99.29174,19.32421],[-99.29078,19.32665],[-99.29126,19.32916],[-99.28796,19.33348],[-99.28832,19.33067],[-99.2867,19.32977],[-99.2875,19.33115],[-99.28495,19.33647],[-99.28021,19.33523],[-99.28116,19.33743],[-99.26842,19.34189],[-99.26306,19.34684],[-99.259,19.34806],[-99.26113,19.34783],[-99.25821,19.34976],[-99.25933,19.35017],[-99.26126,19.36104],[-99.26683,19.36355],[-99.26672,19.36781],[-99.26507,19.37175],[-99.26843,19.36871],[-99.26911,19.36906],[-99.26838,19.37181],[-99.26978,19.37144],[-99.26998,19.37314],[-99.26135,19.37584],[-99.246,19.38723],[-99.24211,19.38735],[-99.23967,19.38914],[-99.23901,19.39247],[-99.23784,19.39349],[-99.22358,19.39585],[-99.21051,19.40042],[-99.1922,19.40372]]]}},{"type":"Feature","properties":{"cve_alc":"011","nombre":"Tláhuac"},"geometry":{"type":"Polygon","coordinates":[[[-99.00135,19.32713],[-98.97987,19.32614],[-98.98061,19.32466],[-98.97856,19.3239],[-98.9782,19.32533],[-98.97652,19.32426],[-98.97532,19.32564],[-98.96896,19.32474],[-98.96828,19.32572],[-98.96045,19.32537],[-98.9579,19.32323],[-98.96297,19.31673],[-98.96478,19.30688],[-98.96722,19.30597],[-98.97143,19.27837],[-98.97653,19.25313],[-98.96599,19.24994],[-98.96859,19.23222],[-98.9403,19.22324],[-98.94255,19.21561],[-98.95109,19.21818],[-98.95395,19.21465],[-98.95746,19.21514],[-98.96003,19.21441],[-98.95974,19.21387],[-98.96269,19.21414],[-98.96853,19.21057],[-98.97435,19.21444],[-98.97815,19.21507],[-98.99056,19.22578],[-98.99124,19.22479],[-98.99326,19.22494],[-98.99373,19.22747],[-98.99526,19.22751],[-98.99579,19.22504],[-98.99746,19.22649],[-98.99718,19.22747],[-98.99957,19.22756],[-98.99985,19.22678],[-99.00299,19.22757],[-99.0001,19.22632],[-99.03019,19.22363],[-99.01549,19.24086],[-99.01392,19.24511],[-99.01257,19.24473],[-99.0123,19.24651],[-99.01119,19.24605],[-99.00888,19.25068],[-99.00704,19.25161],[-99.01283,19.25795],[-99.01652,19.25996],[-99.02982,19.2626],[-99.03732,19.27171],[-99.0545,19.27937],[-99.06437,19.28199],[-99.06897,19.28496],[-99.06163,19.29266],[-99.06478,19.30164],[-99.0634,19.30568],[-99.05987,19.30444],[-99.05378,19.31186],[-99.05226,19.31076],[-99.05043,19.31296],[-99.04887,19.31188],[-99.04662,19.31488],[-99.04361,19.31221],[-99.04044,19.31541],[-99.03959,19.31469],[-99.03873,19.31573],[-99.00135,19.32713]]]}},{"type":"Feature","properties":{"cve_alc":"012","nombre":"Tlalpan"},"geometry":{"type":"Polygon","coordinates":[[[-99.21985,19.31212],[-99.21539,19.30762],[-99.20223,19.30496],[-99.19629,19.30228],[-99.17929,19.30344],[-99.16556,19.30175],[-99.16024,19.30057],[-99.15666,19.29684],[-99.15162,19.29801],[-99.14741,19.30129],[-99.14262,19.29961],[-99.13472,19.30829],[-99.11681,19.30142],[-99.10921,19.29962],[-99.10093,19.30002],[-99.10136,19.2952],[-99.10502,19.29352],[-99.12493,19.28524],[-99.13511,19.28246],[-99.14106,19.28253],[-99.14209,19.27394],[-99.14119,19.27353],[-99.14214,19.27069],[-99.14395,19.26954],[-99.14492,19.26745],[-99.1424,19.26662],[-99.14237,19.26023],[-99.14017,19.25786],[-99.1408,19.257],[-99.13939,19.25469],[-99.14173,19.249],[-99.13892,19.24597],[-99.14038,19.24359],[-99.14426,19.24474],[-99.14401,19.23968],[-99.14612,19.23933],[-99.14752,19.24026],[-99.14445,19.23452],[-99.14788,19.23456],[-99.14823,19.23631],[-99.14947,19.23403],[-99.15068,19.23469],[-99.1506,19.23256],[-99.15338,19.22598],[-99.15119,19.22441],[-99.15115,19.22341],[-99.15248,19.22053],[-99.15352,19.22181],[-99.15439,19.22064],[-99.13832,19.21573],[-99.13282,19.20998],[-99.13243,19.20648],[-99.1303,19.20318],[-99.12931,19.203],[-99.12909,19.19944],[-99.13045,19.19621],[-99.13067,19.19131],[-99.12708,19.18727],[-99.1301,19.18393],[-99.13239,19.17853],[-99.13206,19.17512],[-99.12995,19.17225],[-99.13031,19.16591],[-99.13269,19.16013],[-99.1328,19.15488],[-99.13251,19.15303],[-99.13024,19.15254],[-99.13241,19.14861],[-99.1404,19.15221],[-99.14449,19.15867],[-99.14961,19.16031],[-99.15196,19.15077],[-99.1525,19.14212],[-99.16329,19.11749],[-99.13648,19.08938],[-99.22678,19.09606],[-99.2787,19.1317],[-99.28761,19.1466],[-99.2956,19.17288],[-99.30276,19.19086],[-99.30714,19.21373],[-99.31625,19.2215],[-99.31556,19.2274],[-99.3057,19.22224],[-99.30143,19.21822],[-99.29671,19.21776],[-99.29315,19.21391],[-99.29144,19.2146],[-99.28782,19.21312],[-99.28239,19.21308],[-99.27719,19.21484],[-99.27421,19.21815],[-99.27416,19.22104],[-99.27068,19.2242],[-99.2589,19.23051],[-99.25343,19.23481],[-99.25099,19.24046],[-99.25177,19.24243],[-99.25035,19.24569],[-99.24801,19.24673],[-99.24739,19.24885],[-99.24529,19.25027],[-99.24459,19.25273],[-99.24539,19.25734],[-99.24389,19.2592],[-99.24574,19.25894],[-99.24724,19.26028],[-99.24553,19.26293],[-99.24709,19.26475],[-99.24599,19.26753],[-99.24347,19.26979],[-99.24461,19.2729],[-99.24346,19.27565],[-99.24537,19.27696],[-99.24491,19.28014],[-99.24196,19.28301],[-99.24297,19.28414],[-99.24081,19.28699],[-99.24276,19.28936],[-99.24266,19.29227],[-99.24138,19.29402],[-99.23597,19.29446],[-99.2333,19.2966],[-99.23248,19.29788],[-99.2334,19.30082],[-99.23223,19.30147],[-99.23297,19.30181],[-99.2319,19.30504],[-99.22775,19.30696],[-99.22493,19.3106],[-99.22071,19.31113],[-99.21985,19.31212]]]}},{"type":"Feature","properties":{"cve_alc":"013","nombre":"Xochimilco"},"geometry":{"type":"Polygon","coordinates":[[[-99.09929,19.32045],[-99.09427,19.31277],[-99.07494,19.2897],[-99.06831,19.28444],[-99.06437,19.28199],[-99.0545,19.27937],[-99.03732,19.27171],[-99.02982,19.2626],[-99.01652,19.25996],[-99.01283,19.25795],[-99.00704,19.25161],[-99.00888,19.25068],[-99.01119,19.24605],[-99.0123,19.24651],[-99.01257,19.24473],[-99.01392,19.24511],[-99.01549,19.24086],[-99.03019,19.22363],[-99.09097,19.21102],[-99.09456,19.21154],[-99.09569,19.20863],[-99.09927,19.20811],[-99.10175,19.20481],[-99.10225,19.20066],[-99.1048,19.19896],[-99.13024,19.15254],[-99.13166,19.15263],[-99.1326,19.15322],[-99.13269,19.16013],[-99.13031,19.16591],[-99.12995,19.17236],[-99.13206,19.17512],[-99.13239,19.17853],[-99.1301,19.18393],[-99.12708,19.18727],[-99.13067,19.19131],[-99.13045,19.19621],[-99.12909,19.19944],[-99.12931,19.203],[-99.1303,19.20318],[-99.13243,19.20648],[-99.13282,19.20998],[-99.13832,19.21573],[-99.15439,19.22064],[-99.15352,19.22181],[-99.15248,19.22053],[-99.15115,19.22341],[-99.15119,19.22441],[-99.15338,19.22598],[-99.1506,19.23256],[-99.15068,19.23469],[-99.14947,19.23403],[-99.14823,19.23631],[-99.14788,19.23456],[-99.14445,19.23452],[-99.14752,19.24026],[-99.14612,19.23933],[-99.14401,19.23968],[-99.14426,19.24474],[-99.14038,19.24359],[-99.13892,19.24597],[-99.14173,19.249],[-99.13939,19.25469],[-99.1408,19.257],[-99.14017,19.25786],[-99.14237,19.26023],[-99.1424,19.26662],[-99.14492,19.26745],[-99.14395,19.26954],[-99.14214,19.27069],[-99.14119,19.27353],[-99.14209,19.27394],[-99.14106,19.28253],[-99.13511,19.28246],[-99.12493,19.28524],[-99.10136,19.2952],[-99.09929,19.32045]]]}},{"type":"Feature","properties":{"cve_alc":"014","nombre":"Benito Juárez"},"geometry":{"type":"Polygon","coordinates":[[[-99.15696,19.40398],[-99.13741,19.40346],[-99.13659,19.40281],[-99.13718,19.3992],[-99.13094,19.39895],[-99.13984,19.35692],[-99.16978,19.35866],[-99.17308,19.36043],[-99.17774,19.36514],[-99.1798,19.36304],[-99.18371,19.36172],[-99.19109,19.36349],[-99.19077,19.36689],[-99.19214,19.3734],[-99.19173,19.38268],[-99.18841,19.39323],[-99.18906,19.39559],[-99.17553,19.39809],[-99.15696,19.40398]]]}},{"type":"Feature","properties":{"cve_alc":"015","nombre":"Cuauhtémoc"},"geometry":{"type":"Polygon","coordinates":[[[-99.14174,19.46582],[-99.13334,19.46485],[-99.12755,19.46153],[-99.12224,19.45978],[-99.12589,19.44819],[-99.12308,19.4425],[-99.1282,19.41376],[-99.1257,19.40433],[-99.13644,19.40281],[-99.15633,19.40406],[-99.17044,19.39979],[-99.17108,19.4035],[-99.1843,19.40783],[-99.17506,19.42304],[-99.17764,19.4236],[-99.16578,19.44365],[-99.16308,19.45906],[-99.15865,19.46392],[-99.15031,19.46296],[-99.14174,19.46582]]]}},{"type":"Feature","properties":{"cve_alc":"016","nombre":"Miguel Hidalgo"},"geometry":{"type":"Polygon","coordinates":[[[-99.20084,19.47335],[-99.19044,19.47046],[-99.19073,19.46467],[-99.188,19.46381],[-99.18848,19.46078],[-99.16371,19.45643],[-99.16578,19.44365],[-99.17764,19.4236],[-99.17506,19.42304],[-99.1843,19.40783],[-99.17108,19.4035],[-99.17044,19.39979],[-99.18906,19.39559],[-99.19222,19.40113],[-99.1922,19.40374],[-99.19761,19.40309],[-99.2019,19.40156],[-99.21051,19.40042],[-99.22358,19.39585],[-99.23784,19.39349],[-99.23892,19.39267],[-99.23993,19.38886],[-99.24268,19.38704],[-99.24548,19.38739],[-99.24765,19.38596],[-99.24853,19.39041],[-99.24695,19.39266],[-99.24704,19.39418],[-99.25256,19.39352],[-99.25475,19.39522],[-99.25484,19.39371],[-99.25922,19.39257],[-99.25963,19.39431],[-99.25568,19.39726],[-99.25581,19.40357],[-99.25486,19.40455],[-99.24831,19.40865],[-99.24083,19.41192],[-99.2373,19.41236],[-99.23545,19.41544],[-99.23361,19.41658],[-99.23297,19.4194],[-99.23084,19.42171],[-99.22702,19.42432],[-99.22546,19.42659],[-99.22233,19.42695],[-99.22338,19.42951],[-99.22682,19.43134],[-99.22617,19.43397],[-99.22963,19.43737],[-99.22058,19.44368],[-99.21813,19.44411],[-99.22015,19.44612],[-99.21997,19.45288],[-99.21736,19.45367],[-99.21529,19.45622],[-99.21263,19.46245],[-99.21354,19.46292],[-99.21154,19.46799],[-99.20886,19.47008],[-99.20717,19.46957],[-99.20682,19.47122],[-99.20497,19.47219],[-99.20084,19.47335]]]}},{"type":"Feature","properties":{"cve_alc":"017","nombre":"Venustiano Carranza"},"geometry":{"type":"Polygon","coordinates":[[[-99.12218,19.45975],[-99.11715,19.458],[-99.11178,19.45378],[-99.10137,19.44994],[-99.09322,19.4516],[-99.08716,19.44577],[-99.08088,19.45016],[-99.06229,19.44479],[-99.05256,19.44842],[-99.05087,19.45018],[-99.04646,19.44236],[-99.05579,19.42214],[-99.05792,19.42089],[-99.0695,19.42025],[-99.07798,19.40715],[-99.09797,19.40914],[-99.11457,19.40562],[-99.1257,19.40433],[-99.1282,19.41376],[-99.12308,19.4425],[-99.12589,19.44819],[-99.12333,19.45815],[-99.12218,19.45975]]]}}]}